     2.10           N: GPS NAV DATA                         RINEX VERSION / TYPE
sbf2rin-12.1.2                          12-APR-21 21:12     PGM / RUN BY / DATE 
    1.1176E-08  1.4901E-08 -5.9605E-08 -5.9605E-08          ION ALPHA           
    8.8064E+04  1.6384E+04 -1.9661E+05 -1.3107E+05          ION BETA            
   -9.313225746155E-10 4.440892098501E-15    61440     2153 DELTA-UTC: A0,A1,T,W
    18                                                      LEAP SECONDS        
                                                            END OF HEADER       
15 21  4  9 20  0  0.0-1.572999171913E-04 2.614797267597E-12 0.000000000000E+00
    9.000000000000E+00-8.706250000000E+01 5.000565436479E-09 1.655673253802E+00
   -4.528090357780E-06 1.308575493749E-02 1.051090657711E-05 5.153602344513E+03
    5.040000000000E+05-2.384185791016E-07-5.922885911058E-01-1.303851604462E-07
    9.290630341988E-01 1.644062500000E+02 9.757303008664E-01-8.409993167115E-09
   -3.575148919303E-10 1.000000000000E+00 2.152000000000E+03 0.000000000000E+00
    2.000000000000E+00 0.000000000000E+00-1.071020960808E-08 9.000000000000E+00
    4.973460000000E+05 4.000000000000E+00
01 21  4  9 20  0  0.0 7.204525172710E-04-9.777068044059E-12 0.000000000000E+00
    7.900000000000E+01 7.512500000000E+01 4.154815921903E-09 4.019729612045E-01
    4.138797521591E-06 1.067487359978E-02 7.592141628265E-06 5.153684129715E+03
    5.040000000000E+05-5.029141902924E-08-2.562901606613E+00 1.732259988785E-07
    9.840055617699E-01 2.434062500000E+02 8.276629141568E-01-8.066050269084E-09
    2.550106222160E-10 1.000000000000E+00 2.152000000000E+03 0.000000000000E+00
    2.000000000000E+00 0.000000000000E+00 4.656612873077E-09 7.900000000000E+01
    4.976280000000E+05 4.000000000000E+00
24 21  4  9 20  0  0.0-2.281740307808E-08-4.547473508865E-13 0.000000000000E+00
    5.000000000000E+01 6.959375000000E+01 5.089140554560E-09 7.579434803254E-01
    3.529712557793E-06 1.101692405064E-02 9.242445230484E-06 5.153742082596E+03
    5.040000000000E+05-6.519258022308E-08 5.002404864870E-01 1.043081283569E-07
    9.355984495565E-01 1.888437500000E+02 7.384059065528E-01-8.484996291296E-09
    4.275178078327E-10 1.000000000000E+00 2.152000000000E+03 0.000000000000E+00
    2.000000000000E+00 0.000000000000E+00 2.793967723846E-09 5.000000000000E+01
    5.020920000000E+05 4.000000000000E+00
28 21  4  9 19 59 44.0 5.892654880881E-04-5.798028723802E-12 0.000000000000E+00
    6.900000000000E+01-3.465625000000E+01 4.644479175486E-09-2.966701522821E+00
   -1.762062311172E-06 1.749300595839E-02 4.004687070847E-06 5.154307065964E+03
    5.039840000000E+05 2.235174179077E-07 1.710459919156E+00 2.514570951462E-07
    9.729931182346E-01 3.036250000000E+02-1.341155978450E+00-7.972474942725E-09
   -1.764359206929E-10 1.000000000000E+00 2.152000000000E+03 0.000000000000E+00
    2.000000000000E+00 0.000000000000E+00-1.117587089539E-08 6.900000000000E+01
    5.022060000000E+05 4.000000000000E+00
01 21  4  9 19 59 44.0 7.204511202872E-04-9.777068044059E-12 0.000000000000E+00
    3.000000000000E+00 7.512500000000E+01 4.154815921903E-09 3.996386823038E-01
    4.138797521591E-06 1.067487068940E-02 7.592141628265E-06 5.153684122086E+03
    5.039840000000E+05-5.029141902924E-08-2.562901474951E+00 1.732259988785E-07
    9.840055559183E-01 2.434062500000E+02 8.276635154162E-01-8.066050269084E-09
    2.550106222160E-10 1.000000000000E+00 2.152000000000E+03 0.000000000000E+00
    2.000000000000E+00 0.000000000000E+00 4.656612873077E-09 3.000000000000E+00
    5.034780000000E+05 4.000000000000E+00
19 21  4  9 22  0  0.0-1.506647095084E-05 5.002220859751E-12 0.000000000000E+00
    5.900000000000E+01-2.025000000000E+01 4.009095566351E-09-1.558033340857E-01
   -1.003965735435E-06 9.158342145383E-03 1.172721385956E-05 5.153629079819E+03
    5.112000000000E+05-8.754432201385E-08 2.769258204937E+00-3.725290298462E-08
    9.811482969705E-01 1.675000000000E+02 1.806648146307E+00-7.839612265604E-09
   -1.967939115420E-10 1.000000000000E+00 2.152000000000E+03 0.000000000000E+00
    2.000000000000E+00 0.000000000000E+00-1.583248376846E-08 5.900000000000E+01
    5.055180000000E+05 4.000000000000E+00
17 21  4  9 22  0  0.0 4.237764514983E-04 6.139089236967E-12 0.000000000000E+00
    4.200000000000E+01-2.393750000000E+01 3.901233930624E-09-2.671501195639E+00
   -1.138076186180E-06 1.336636790074E-02 1.150369644165E-05 5.153580181122E+03
    5.112000000000E+05 1.918524503708E-07 2.724069157009E+00 1.415610313416E-07
    9.826351644817E-01 1.659375000000E+02-1.570442979414E+00-7.438524130102E-09
   -1.700070814773E-10 1.000000000000E+00 2.152000000000E+03 0.000000000000E+00
    2.000000000000E+00 0.000000000000E+00-1.117587089539E-08 4.200000000000E+01
    5.055180000000E+05 4.000000000000E+00
24 21  4  9 22  0  0.0-2.607703208923E-08-4.547473508865E-13 0.000000000000E+00
    5.100000000000E+01 7.593750000000E+01 5.018423323189E-09 1.808135996899E+00
    3.878027200699E-06 1.101721171290E-02 9.268522262573E-06 5.153741243362E+03
    5.112000000000E+05-2.253800630569E-07 5.001790175952E-01-2.048909664154E-08
    9.356019473937E-01 1.857500000000E+02 7.383564131083E-01-8.383920652519E-09
    5.132356640398E-10 1.000000000000E+00 2.152000000000E+03 0.000000000000E+00
    2.000000000000E+00 0.000000000000E+00 2.793967723846E-09 5.100000000000E+01
    5.055180000000E+05 4.000000000000E+00
28 21  4  9 21 59 44.0 5.892240442336E-04-5.798028723802E-12 0.000000000000E+00
    7.700000000000E+01-3.437500000000E+01 4.594119934964E-09-1.916909592716E+00
   -1.324340701103E-06 1.749303995166E-02 4.166737198830E-06 5.154306961060E+03
    5.111840000000E+05 4.284083843231E-08 1.710402607877E+00 4.246830940247E-07
    9.729915821706E-01 3.032500000000E+02-1.341153571950E+00-8.074264896971E-09
   -1.732215010851E-10 1.000000000000E+00 2.152000000000E+03 0.000000000000E+00
    2.000000000000E+00 0.000000000000E+00-1.117587089539E-08 7.700000000000E+01
    5.055180000000E+05 4.000000000000E+00
14 21  4  9 22  0  0.0 9.711738675833E-05-2.387423592154E-12 0.000000000000E+00
    1.830000000000E+02-3.312500000000E+01 5.023066373734E-09 7.052809486167E-01
   -1.681968569756E-06 5.560723366216E-04 3.734603524208E-06 5.153742074966E+03
    5.112000000000E+05-2.607703208923E-08 1.661636732560E+00 9.313225746155E-09
    9.573145409532E-01 3.055312500000E+02 2.444788414085E+00-8.438922943585E-09
   -1.353627812603E-10 1.000000000000E+00 2.152000000000E+03 0.000000000000E+00
    2.000000000000E+00 0.000000000000E+00-7.916241884232E-09 9.510000000000E+02
    5.055180000000E+05 4.000000000000E+00
13 21  4  9 22  0  0.0 1.179887913167E-04 4.547473508865E-12 0.000000000000E+00
    8.800000000000E+01-3.328125000000E+01 3.875875731496E-09 3.042031952613E+00
   -1.693144440651E-06 4.910346120596E-03 1.257471740246E-05 5.153689056396E+03
    5.112000000000E+05 4.470348358154E-08-3.467347881300E-01 3.911554813385E-08
    9.684512506019E-01 1.398750000000E+02 9.940106355271E-01-7.619960259073E-09
   -1.225051028293E-10 1.000000000000E+00 2.152000000000E+03 0.000000000000E+00
    2.000000000000E+00 0.000000000000E+00-1.117587089539E-08 8.800000000000E+01
    5.055180000000E+05 4.000000000000E+00
30 21  4  9 22  0  0.0-4.105977714062E-04-5.343281372916E-12 0.000000000000E+00
    2.300000000000E+01 8.165625000000E+01 5.013065957176E-09 7.360683697335E-01
    4.321336746216E-06 5.065026227385E-03 7.709488272667E-06 5.153724040985E+03
    5.112000000000E+05-5.587935447693E-09 5.955213752728E-01 1.993030309677E-07
    9.373821036472E-01 2.185937500000E+02-2.816707942598E+00-8.368562869948E-09
    4.985921969377E-10 1.000000000000E+00 2.152000000000E+03 0.000000000000E+00
    2.000000000000E+00 0.000000000000E+00 3.725290298462E-09 2.300000000000E+01
    5.059380000000E+05 4.000000000000E+00
06 21  4  9 22  0  0.0 6.089918315411E-06 2.728484105319E-12 0.000000000000E+00
    3.700000000000E+01 7.653125000000E+01 4.099813630837E-09 1.706704071555E+00
    3.989785909653E-06 2.296903170645E-03 7.838010787964E-06 5.153740087509E+03
    5.112000000000E+05 5.029141902924E-08-2.571209595920E+00-9.313225746155E-09
    9.834847409899E-01 2.357500000000E+02-9.997910871404E-01-7.866041937935E-09
    3.264421690552E-10 1.000000000000E+00 2.152000000000E+03 0.000000000000E+00
    2.000000000000E+00 0.000000000000E+00 3.725290298462E-09 3.700000000000E+01
    5.060280000000E+05 4.000000000000E+00
12 21  4  9 22  0  0.0-2.563418820500E-05-5.115907697473E-12 0.000000000000E+00
    4.600000000000E+01-2.675000000000E+01 4.730554189427E-09 1.242443802143E-01
   -1.624226570129E-06 8.491861401126E-03 4.284083843231E-06 5.153754468918E+03
    5.112000000000E+05-8.940696716309E-08 1.688050900519E+00 1.024454832077E-07
    9.738138635534E-01 3.079375000000E+02 1.197013175238E+00-8.404278643368E-09
   -1.764359206929E-10 1.000000000000E+00 2.152000000000E+03 0.000000000000E+00
    2.000000000000E+00 0.000000000000E+00-1.257285475731E-08 4.600000000000E+01
    5.068680000000E+05 4.000000000000E+00
02 21  4  9 22  0  0.0-5.941875278950E-04-3.524291969370E-12 0.000000000000E+00
    5.500000000000E+01 7.200000000000E+01 4.477686513616E-09 1.709972158861E+00
    3.317371010780E-06 2.026170725003E-02 8.584931492805E-06 5.153648990631E+03
    5.112000000000E+05 2.626329660416E-07-2.645758527560E+00-4.265457391739E-07
    9.627718500549E-01 2.096250000000E+02-1.525902017361E+00-7.923901490874E-09
    3.550147877909E-10 1.000000000000E+00 2.152000000000E+03 0.000000000000E+00
    2.000000000000E+00 0.000000000000E+00-1.769512891769E-08 5.500000000000E+01
    5.072160000000E+05 4.000000000000E+00
